{
    "links": {
        "self": "http://www.neowsapp.com/rest/v1/neo/54017435?api_key=iIulBulltgU6a56xZRHN4H3l9WmuAYTsLGpBGhQ2"
    },
    "id": "54017435",
    "neo_reference_id": "54017435",
    "name": "(2020 LD1)",
    "designation": "2020 LD1",
    "nasa_jpl_url": "http://ssd.jpl.nasa.gov/sbdb.cgi?sstr=54017435",
    "absolute_magnitude_h": 25.418,
    "estimated_diameter": {
        "kilometers": {
            "estimated_diameter_min": 0.0219257762,
            "estimated_diameter_max": 0.049027526
        },
        "meters": {
            "estimated_diameter_min": 21.9257761862,
            "estimated_diameter_max": 49.0275260118
        },
        "miles": {
            "estimated_diameter_min": 0.0136240415,
            "estimated_diameter_max": 0.0304642829
        },
        "feet": {
            "estimated_diameter_min": 71.9349635427,
            "estimated_diameter_max": 160.8514684405
        }
    },
    "is_potentially_hazardous_asteroid": false,
    "close_approach_data": [
        {
            "close_approach_date": "1946-04-21",
            "close_approach_date_full": "1946-Apr-21 06:08",
            "epoch_date_close_approach": -747856320000,
            "relative_velocity": {
                "kilometers_per_second": "16.2606190175",
                "kilometers_per_hour": "58538.2284630266",
                "miles_per_hour": "36373.3786802623"
            },
            "miss_distance": {
                "astronomical": "0.3794669479",
                "lunar": "147.6126427331",
                "kilometers": "56767447.141240973",
                "miles": "35273655.9924045074"
            },
            "orbiting_body": "Earth"
        },
        {
            "close_approach_date": "2012-07-24",
            "close_approach_date_full": "2012-Jul-24 07:04",
            "epoch_date_close_approach": 1343113440000,
            "relative_velocity": {
                "kilometers_per_second": "16.2156308388",
                "kilometers_per_hour": "58376.2710197934",
                "miles_per_hour": "36272.7446233822"
            },
            "miss_distance": {
                "astronomical": "0.3670861076",
                "lunar": "142.7964958564",
                "kilometers": "54915299.803550812",
                "miles": "34122785.0033607256"
            },
            "orbiting_body": "Earth"
        },
        {
            "close_approach_date": "2020-06-17",
            "close_approach_date_full": "2020-Jun-17 19:50",
            "epoch_date_close_approach": 1592423400000,
            "relative_velocity": {
                "kilometers_per_second": "6.2416429504",
                "kilometers_per_hour": "22469.9146213393",
                "miles_per_hour": "13961.9311156872"
            },
            "miss_distance": {
                "astronomical": "0.0519110029",
                "lunar": "20.1933801281",
                "kilometers": "7765775.463403823",
                "miles": "4825429.1148378374"
            },
            "orbiting_body": "Earth"
        },
        {
            "close_approach_date": "2028-05-02",
            "close_approach_date_full": "2028-May-02 06:55",
            "epoch_date_close_approach": 1840863300000,
            "relative_velocity": {
                "kilometers_per_second": "11.6105331624",
                "kilometers_per_hour": "41797.9193844679",
                "miles_per_hour": "25971.6016308656"
            },
            "miss_distance": {
                "astronomical": "0.22360578",
                "lunar": "86.98264842",
                "kilometers": "33450948.4076886",
                "miles": "20785455.50615868"
            },
            "orbiting_body": "Earth"
        }
    ],
    "orbital_data": {
        "orbit_id": "7",
        "orbit_determination_date": "2020-08-31 09:29:32",
        "first_observation_date": "2020-06-14",
        "last_observation_date": "2020-07-25",
        "data_arc_in_days": 41,
        "observations_used": 35,
        "orbit_uncertainty": "7",
        "minimum_orbit_intersection": ".0450603",
        "jupiter_tisserand_invariant": "3.800",
        "epoch_osculation": "2459000.5",
        "eccentricity": ".4473713239316342",
        "semi_major_axis": "1.914455566016554",
        "inclination": "3.857864894561704",
        "ascending_node_longitude": "268.4414261491363",
        "orbital_period": "967.5342848010063",
        "perihelion_distance": "1.057983044839442",
        "perihelion_argument": "346.64214426081",
        "aphelion_distance": "2.770928087193665",
        "perihelion_time": "2459008.611487444279",
        "mean_anomaly": "356.9818790653593",
        "mean_motion": ".3720798380535337",
        "equinox": "J2000",
        "orbit_class": {
            "orbit_class_type": "AMO",
            "orbit_class_description": "Near-Earth asteroid orbits similar to that of 1221 Amor",
            "orbit_class_range": "1.017 AU < q (perihelion) < 1.3 AU"
        }
    },
    "is_sentry_object": false
}